{"format":"tle-catalog-v1","generatedAt":"2026-07-01T14:19:31.438Z","count":19018,"entries":[{"name":"CENTISPACE-1 GROUP 05 O*","line1":"1 69582U 26138A   26181.62953589 -.00000391  00000+0 -12102-3 0  9998","line2":"2 69582  55.1404 231.5287 0010329 310.3759  49.6313 14.15474308  1927"},{"name":"CENTISPACE-1 GROUP 05 O*","line1":"1 69583U 26138B   26181.62780036 -.00000399  00000+0 -12475-3 0  9995","line2":"2 69583  55.1404 231.5177 0009288 310.3007  49.7154 14.15655432  1927"},{"name":"CENTISPACE-1 GROUP 05 O*","line1":"1 69584U 26138C   26181.62698523 -.00000381  00000+0 -11513-3 0  9998","line2":"2 69584  55.1407 231.5218 0009222 312.1039  47.9150 14.15739447  1925"},{"name":"CENTISPACE-1 GROUP 05 O*","line1":"1 69585U 26138D   26181.62541410 -.00000423  00000+0 -13599-3 0  9994","line2":"2 69585  55.1409 231.5041 0008779 310.9148  49.1066 14.15926654  1923"},{"name":"CENTISPACE-1 GROUP 05 O*","line1":"1 69586U 26138E   26181.62478899 -.00000385  00000+0 -11675-3 0  9995","line2":"2 69586  55.1406 231.5080 0008495 311.2087  48.8155 14.15993133  1926"},{"name":"CENTISPACE-1 GROUP 05 O*","line1":"1 69587U 26138F   26181.83713463 -.00000408  00000+0 -12864-3 0  9995","line2":"2 69587  55.1409 230.7299 0008395 316.2606  43.7703 14.15916162  1957"},{"name":"CENTISPACE-1 GROUP 05 O*","line1":"1 69588U 26138G   26181.62375978 -.00000381  00000+0 -11453-3 0  9991","line2":"2 69588  55.1408 231.5010 0007647 315.2101  44.8255 14.16080891  1928"},{"name":"CZ-12 R/B","line1":"1 69581U 26137K   26179.27273448 -.00000104  00000+0  27092-4 0  9999","line2":"2 69581  49.9862 209.6633 0077471 151.7780 208.7358 14.11691666  1570"},{"name":"CZ-3B R/B","line1":"1 69571U 26136B   26181.80900824  .00223185  20059-5  30587-3 0  9993","line2":"2 69571  63.4371 353.3309 7324125 171.4545 217.1666  2.29482432   343"},{"name":"GUOWANG OBJECT A","line1":"1 69572U 26137A   26181.74054652 -.00000029  00000+0  94836-4 0  9994","line2":"2 69572  49.9989 201.4250 0012632 270.2458  89.6993 13.89813685  1901"},{"name":"GUOWANG OBJECT B","line1":"1 69573U 26137B   26181.59379671 -.00000051  00000+0  76857-4 0  9997","line2":"2 69573  49.9986 201.9806 0011859 269.0297  90.9243 13.89805334  1891"},{"name":"GUOWANG OBJECT C","line1":"1 69574U 26137C   26181.59276983 -.00000039  00000+0  86813-4 0  9999","line2":"2 69574  49.9949 201.9638 0011914 270.3993  89.5540 13.89816111  1893"},{"name":"GUOWANG OBJECT D","line1":"1 69575U 26137D   26181.30410499 -.00000065  00000+0  65478-4 0  9994","line2":"2 69575  49.9947 203.1014 0011128 268.2349  91.7274 13.89828912  1859"},{"name":"GUOWANG OBJECT F","line1":"1 69577U 26137F   26181.58979226 -.00000065  00000+0  65682-4 0  9991","line2":"2 69577  49.9996 201.9637 0010834 271.7974  88.1683 13.89810938  1895"},{"name":"GUOWANG OBJECT G","line1":"1 69578U 26137G   26181.58882841 -.00000053  00000+0  75236-4 0  9991","line2":"2 69578  49.9947 201.9422 0010829 271.6431  88.3227 13.89796246  1896"},{"name":"GUOWANG OBJECT H","line1":"1 69579U 26137H   26176.48489301  .00000037  00000+0  14270-3 0  9990","line2":"2 69579  49.9967 222.2731 0010122 259.8752 100.1006 13.92076941  1185"},{"name":"GUOWANG OBJECT J","line1":"1 69580U 26137J   26178.27848690  .00000022  00000+0  13174-3 0  9997","line2":"2 69580  49.9961 215.0979 0011832 257.3150 102.6427 13.91997107  1436"},{"name":"KUIPER-00481","line1":"1 69594U 26140C   26181.83215530  .00035630  00000+0  95398-3 0  9994","line2":"2 69594  51.8792 332.6655 0010396 220.9245 139.0963 15.37635873  3338"},{"name":"KUIPER-00490","line1":"1 69595U 26140D   26181.84156698  .00036486  00000+0  97960-3 0  9992","line2":"2 69595  51.8784 332.7240 0005909 281.3964  78.6359 15.37574258  3330"},{"name":"SPACEMOBILE-009","line1":"1 69590U 26139B   26181.55321648  .00000242  00000+0  30675-4 0  9994","line2":"2 69590  52.9925 201.8899 0004421  14.5316 345.5802 15.12678049  2003"},{"name":"SPACEMOBILE-010","line1":"1 69591U 26139C   26181.48861579  .00000224  00000+0  29738-4 0  9997","line2":"2 69591  52.9931 202.2012 0004282   4.5231 355.5798 15.12509113  2003"}]}